HST                     
1 20580U 90037B   23244.37172928  .00004520  00000+0  23308-3 0  9997
2 20580  28.4688 120.8476 0002470 117.6505  46.9649 15.13895124633019
